ONEWEB-0228             
1 48780U 21045P   24276.71710762 -.00000077  00000+0 -23902-3 0  9995
2 48780  87.9116  23.0585 0001886 105.0746 255.0593 13.15547517162489
